COSMOS 2433 (720)       
1 32275U 07052A   24339.55974193 -.00000026  00000+0  00000+0 0  9994
2 32275  65.8671 334.7031 0005703 255.6182 104.3380  2.13103995133132
COSMOS 2432 (719)       
1 32276U 07052B   24339.20829669 -.00000027  00000+0  00000+0 0  9995
2 32276  65.8826 334.8319 0011553 311.9994  84.0194  2.13103154133158
COSMOS 2434 (721)       
1 32393U 07065A   24340.42366378  .00000067  00000+0  00000+0 0  9991
2 32393  64.3153 210.7789 0004318  71.3216 123.3892  2.13101283131895
COSMOS 2436 (723)       
1 32395U 07065C   24340.26894128  .00000068  00000+0  00000+0 0  9995
2 32395  64.3239 210.8505 0017415   7.5755 203.1078  2.13100035131820
COSMOS 2456 (730)       
1 36111U 09070A   24339.60238681  .00000023  00000+0  00000+0 0  9996
2 36111  64.6961  90.1119 0002494 297.7950 141.5018  2.13103553116545
COSMOS 2457 (733)       
1 36112U 09070B   24339.35008418  .00000021  00000+0  00000+0 0  9990
2 36112  64.6808  89.9755 0005490 157.5151 220.7904  2.13101000116508
COSMOS 2460 (732)       
1 36402U 10007C   24340.32821098 -.00000023  00000+0  00000+0 0  9993
2 36402  65.7199 333.3130 0002969 274.1288 128.6885  2.13106153114914
COSMOS 2476 (744)       
1 37867U 11064A   24339.62240547  .00000026  00000+0  00000+0 0  9990
2 37867  64.9661  91.8093 0023286 232.6903 133.4201  2.13101475101898
COSMOS 2477 (745)       
1 37868U 11064B   24340.38308667  .00000029  00000+0  00000+0 0  9997
2 37868  64.9732  91.8577 0020448 233.1945 175.4615  2.13102864101847
COSMOS 2475 (743)       
1 37869U 11064C   24339.40512576  .00000025  00000+0  00000+0 0  9991
2 37869  64.9797  91.9073 0024992 248.7013  87.3357  2.13101549101839
COSMOS 2485 (747)       
1 39155U 13019A   24339.55595616  .00000027  00000+0  00000+0 0  9997
2 39155  65.1218  92.4310 0023807 228.6812 131.1110  2.13104325 90352
COSMOS 2492 (754)       
1 39620U 14012A   24339.51130818 -.00000026  00000+0  00000+0 0  9993
2 39620  65.6007 332.8926 0014576 311.3597  48.5319  2.13103145 83316
COSMOS 2500 (755)       
1 40001U 14032A   24339.21917871 -.00000027  00000+0  00000+0 0  9990
2 40001  65.5376 332.6942 0008269 222.0245 137.9291  2.13105961 81526
COSMOS 2501 (702K)      
1 40315U 14075A   24338.06665168  .00000080  00000+0  00000+0 0  9994
2 40315  63.6161 209.8114 0019196 204.9135 155.0940  2.13101408 77898
COSMOS 2514 (751)       
1 41330U 16008A   24339.92656040 -.00000025  00000+0  00000+0 0  9995
2 41330  65.3308 332.1365 0012330 222.5179 137.4027  2.13102573 68707
COSMOS 2522 (752)       
1 42939U 17055A   24337.88931430  .00000079  00000+0  00000+0 0  9994
2 42939  64.0774 211.0053 0006277 231.2167 128.8279  2.13101926 56017
COSMOS 2527 (756)       
1 43508U 18053A   24339.25649440  .00000025  00000+0  00000+0 0  9997
2 43508  65.2811  92.6287 0008576 221.6422 138.2879  2.13102236 50344
COSMOS 2529 (757)       
1 43687U 18086A   24337.94743256  .00000079  00000+0  00000+0 0  9994
2 43687  64.2929 211.5615 0007450 260.6372  99.3792  2.13102008 47327
COSMOS 2534 (758)       
1 44299U 19030A   24340.38541590  .00000067  00000+0  00000+0 0  9990
2 44299  64.3660 211.4484 0009592 287.7832 276.8092  2.13102008 43009
COSMOS 2544 (759)       
1 44850U 19088A   24339.20069392  .00000025  00000+0  00000+0 0  9994
2 44850  65.2681  92.4644 0013090 248.8717 110.9838  2.13101956 38784
COSMOS 2545 (760)       
1 45358U 20018A   24340.33596904 -.00000025  00000+0  00000+0 0  9994
2 45358  64.6696 331.9937 0012041 250.8680 109.0176  2.13102473 36754
COSMOS 2547 (705K)      
1 46805U 20075A   24339.58397864  .00000071  00000+0  00000+0 0  9994
2 46805  64.5956 211.1676 0006081 233.9620 126.0777  2.13102794 31984
COSMOS 2557 (706K)      
1 52984U 22075A   24340.21923155 -.00000027  00000+0  00000+0 0  9993
2 52984  64.6009 334.1119 0014124 278.0789  81.7793  2.13101927 18796
COSMOS 2559 (707K)      
1 54031U 22130A   24340.16267589 -.00000027  00000+0  00000+0 0  9996
2 54031  64.5729 334.2256 0008098 234.3430 125.6003  2.13101278 16770
COSMOS 2564 (761)       
1 54377U 22161A   24339.41434520  .00000072  00000+0  00000+0 0  9999
2 54377  64.7371 211.3087 0008183 209.1778 150.8731  2.13102064 15709
COSMOS 2569 (703K)      
1 57517U 23114A   24340.36875206  .00000028  00000+0  00000+0 0  9994
2 57517  64.9977  91.5128 0009799 289.1838  70.7116  2.13104051 10356
